EUTELSAT 7A             
1 28187U 04008A   25220.72906295  .00000104  00000+0  00000+0 0  9992
2 28187   5.0306  75.7564 0001036  80.3715 284.6105  1.00270465 78220
EUTELSAT 174A           
1 28924U 05052A   25220.86249597  .00000010  00000+0  00000+0 0  9997
2 28924   3.4217  80.4415 0006248  56.7566 304.8747  1.00270859 49201
EUTELSAT HOTBIRD 13B    
1 29270U 06032A   25220.83458917  .00000157  00000+0  00000+0 0  9998
2 29270   0.8490  85.7975 0004155  47.5070 157.8079  1.00270100 44176
EUTELSAT HOTBIRD 13C    
1 33459U 08065A   25220.75419640 -.00000099  00000+0  00000+0 0  9997
2 33459   2.1413  82.9572 0003613  67.2594  66.2879  1.00271687 44217
EUTELSAT 36B            
1 36101U 09065A   25220.90392049  .00000114  00000+0  00000+0 0  9992
2 36101   0.0517 359.7817 0005863 138.5572 195.1949  1.00272501 57579
EUTELSAT KA-SAT 9A      
1 37258U 10069A   25220.90123613  .00000064  00000+0  00000+0 0  9995
2 37258   0.0562 305.5152 0004529 182.2893 163.2673  1.00273824 40878
EUTELSAT 7 WEST A       
1 37816U 11051A   25220.89794279 -.00000058  00000+0  00000+0 0  9991
2 37816   0.0672 336.3469 0005288 174.7048 122.5492  1.00271010 50754
EUTELSAT 16A            
1 37836U 11057A   25220.92058825  .00000106  00000+0  00000+0 0  9996
2 37836   0.0659 347.9748 0005471 147.8938 169.1963  1.00269736  4191
